[{"OBJECT_NAME":"STARLINK-3055","OBJECT_ID":"2021-082H","EPOCH":"2026-03-09T22:44:47.834304","MEAN_MOTION":14.97523817,"ECCENTRICITY":0.00024398,"INCLINATION":69.9982,"RA_OF_ASC_NODE":274.5904,"ARG_OF_PERICENTER":272.3196,"MEAN_ANOMALY":87.7683,"EPHEMERIS_TYPE":0,"CLASSIFICATION_TYPE":"U","NORAD_CAT_ID":49137,"ELEMENT_SET_NO":999,"REV_AT_EPOCH":24649,"BSTAR":-3.6006416e-5,"MEAN_MOTION_DOT":-5.13e-6,"MEAN_MOTION_DDOT":0},{"OBJECT_NAME":"LEMUR-2-KARENDARRELL","OBJECT_ID":"2025-135BU","EPOCH":"2026-03-09T21:08:31.963200","MEAN_MOTION":14.98475386,"ECCENTRICITY":0.00078103,"INCLINATION":97.7605,"RA_OF_ASC_NODE":185.4061,"ARG_OF_PERICENTER":183.1489,"MEAN_ANOMALY":176.9686,"EPHEMERIS_TYPE":0,"CLASSIFICATION_TYPE":"U","NORAD_CAT_ID":64841,"ELEMENT_SET_NO":999,"REV_AT_EPOCH":3913,"BSTAR":0.00091115502,"MEAN_MOTION_DOT":0.00010849,"MEAN_MOTION_DDOT":0}]
